[{"OBJECT_NAME":"STARLINK-34716","OBJECT_ID":"2025-190B","EPOCH":"2026-03-09T13:11:50.296416","MEAN_MOTION":15.30187279,"ECCENTRICITY":0.00010175,"INCLINATION":53.1589,"RA_OF_ASC_NODE":168.8406,"ARG_OF_PERICENTER":68.7579,"MEAN_ANOMALY":291.3531,"EPHEMERIS_TYPE":0,"CLASSIFICATION_TYPE":"U","NORAD_CAT_ID":65352,"ELEMENT_SET_NO":999,"REV_AT_EPOCH":2973,"BSTAR":0.00077174927,"MEAN_MOTION_DOT":0.00022558,"MEAN_MOTION_DDOT":0},{"OBJECT_NAME":"CZ-2C R\/B","OBJECT_ID":"2024-218A","EPOCH":"2026-03-09T22:16:31.791072","MEAN_MOTION":15.22960743,"ECCENTRICITY":0.00453409,"INCLINATION":97.5416,"RA_OF_ASC_NODE":83.973,"ARG_OF_PERICENTER":359.5317,"MEAN_ANOMALY":0.5869,"EPHEMERIS_TYPE":0,"CLASSIFICATION_TYPE":"U","NORAD_CAT_ID":62078,"ELEMENT_SET_NO":999,"REV_AT_EPOCH":7134,"BSTAR":0.00039378379,"MEAN_MOTION_DOT":9.445e-5,"MEAN_MOTION_DDOT":0}]
